CCSDS_OMM_VERS = 2.0
CREATION_DATE  = 
ORIGINATOR     = 

OBJECT_NAME    = CHUTIAN-2 A
OBJECT_ID      = 2025-256A
CENTER_NAME    = EARTH
REF_FRAME      = TEME
TIME_SYSTEM    = UTC
MEAN_ELEMENT_THEORY = SGP/SGP4

EPOCH          = 2025-11-30T23:51:28.874016
MEAN_MOTION    = 14.49911980
ECCENTRICITY   = .00130702
INCLINATION    = 98.2781
RA_OF_ASC_NODE = 39.9629
ARG_OF_PERICENTER = 214.0174
MEAN_ANOMALY   = 146.0183

EPHEMERIS_TYPE = 0
CLASSIFICATION_TYPE = U
NORAD_CAT_ID   = 66409
ELEMENT_SET_NO = 999
REV_AT_EPOCH   = 317
BSTAR          = .26439543E-4
MEAN_MOTION_DOT = .58E-6
MEAN_MOTION_DDOT = 0

CCSDS_OMM_VERS = 2.0
CREATION_DATE  = 
ORIGINATOR     = 

OBJECT_NAME    = CHUTIAN-2 B
OBJECT_ID      = 2025-256B
CENTER_NAME    = EARTH
REF_FRAME      = TEME
TIME_SYSTEM    = UTC
MEAN_ELEMENT_THEORY = SGP/SGP4

EPOCH          = 2025-11-30T23:37:20.794080
MEAN_MOTION    = 14.50999225
ECCENTRICITY   = .00131668
INCLINATION    = 98.2805
RA_OF_ASC_NODE = 39.9819
ARG_OF_PERICENTER = 217.8544
MEAN_ANOMALY   = 142.1726

EPHEMERIS_TYPE = 0
CLASSIFICATION_TYPE = U
NORAD_CAT_ID   = 66410
ELEMENT_SET_NO = 999
REV_AT_EPOCH   = 317
BSTAR          = .19374542E-3
MEAN_MOTION_DOT = .723E-5
MEAN_MOTION_DDOT = 0

CCSDS_OMM_VERS = 2.0
CREATION_DATE  = 
ORIGINATOR     = 

OBJECT_NAME    = ZK-1A R/B
OBJECT_ID      = 2025-256C
CENTER_NAME    = EARTH
REF_FRAME      = TEME
TIME_SYSTEM    = UTC
MEAN_ELEMENT_THEORY = SGP/SGP4

EPOCH          = 2025-11-20T17:22:35.449824
MEAN_MOTION    = 15.01236100
ECCENTRICITY   = .02323532
INCLINATION    = 98.3243
RA_OF_ASC_NODE = 30.9055
ARG_OF_PERICENTER = 318.4537
MEAN_ANOMALY   = 39.9225

EPHEMERIS_TYPE = 0
CLASSIFICATION_TYPE = U
NORAD_CAT_ID   = 66411
ELEMENT_SET_NO = 999
REV_AT_EPOCH   = 174
BSTAR          = .48987823E-3
MEAN_MOTION_DOT = .11214E-3
MEAN_MOTION_DDOT = 0

CCSDS_OMM_VERS = 2.0
CREATION_DATE  = 
ORIGINATOR     = 

OBJECT_NAME    = HULIANWANG DIGUI 13A
OBJECT_ID      = 2025-258A
CENTER_NAME    = EARTH
REF_FRAME      = TEME
TIME_SYSTEM    = UTC
MEAN_ELEMENT_THEORY = SGP/SGP4

EPOCH          = 2025-11-30T23:37:44.680224
MEAN_MOTION    = 14.23488919
ECCENTRICITY   = .00140725
INCLINATION    = 50.0042
RA_OF_ASC_NODE = 311.4453
ARG_OF_PERICENTER = 316.4209
MEAN_ANOMALY   = 43.5591

EPHEMERIS_TYPE = 0
CLASSIFICATION_TYPE = U
NORAD_CAT_ID   = 66412
ELEMENT_SET_NO = 999
REV_AT_EPOCH   = 298
BSTAR          = .74544826E-4
MEAN_MOTION_DOT = .11E-6
MEAN_MOTION_DDOT = 0

CCSDS_OMM_VERS = 2.0
CREATION_DATE  = 
ORIGINATOR     = 

OBJECT_NAME    = HULIANWANG DIGUI 13B
OBJECT_ID      = 2025-258B
CENTER_NAME    = EARTH
REF_FRAME      = TEME
TIME_SYSTEM    = UTC
MEAN_ELEMENT_THEORY = SGP/SGP4

EPOCH          = 2025-11-30T23:48:45.341280
MEAN_MOTION    = 14.23480187
ECCENTRICITY   = .00134201
INCLINATION    = 50.0007
RA_OF_ASC_NODE = 311.4747
ARG_OF_PERICENTER = 316.9354
MEAN_ANOMALY   = 43.0508

EPHEMERIS_TYPE = 0
CLASSIFICATION_TYPE = U
NORAD_CAT_ID   = 66413
ELEMENT_SET_NO = 999
REV_AT_EPOCH   = 298
BSTAR          = .36997176E-4
MEAN_MOTION_DOT = -.75E-6
MEAN_MOTION_DDOT = 0

CCSDS_OMM_VERS = 2.0
CREATION_DATE  = 
ORIGINATOR     = 

OBJECT_NAME    = HULIANWANG DIGUI 13C
OBJECT_ID      = 2025-258C
CENTER_NAME    = EARTH
REF_FRAME      = TEME
TIME_SYSTEM    = UTC
MEAN_ELEMENT_THEORY = SGP/SGP4

EPOCH          = 2025-11-30T23:44:16.480896
MEAN_MOTION    = 14.23505681
ECCENTRICITY   = .00135932
INCLINATION    = 50.0044
RA_OF_ASC_NODE = 311.4727
ARG_OF_PERICENTER = 315.2494
MEAN_ANOMALY   = 44.7321

EPHEMERIS_TYPE = 0
CLASSIFICATION_TYPE = U
NORAD_CAT_ID   = 66414
ELEMENT_SET_NO = 999
REV_AT_EPOCH   = 298
BSTAR          = .63365101E-4
MEAN_MOTION_DOT = -.14E-6
MEAN_MOTION_DDOT = 0

CCSDS_OMM_VERS = 2.0
CREATION_DATE  = 
ORIGINATOR     = 

OBJECT_NAME    = HULIANWANG DIGUI 13D
OBJECT_ID      = 2025-258D
CENTER_NAME    = EARTH
REF_FRAME      = TEME
TIME_SYSTEM    = UTC
MEAN_ELEMENT_THEORY = SGP/SGP4

EPOCH          = 2025-11-30T23:35:43.875744
MEAN_MOTION    = 14.23493869
ECCENTRICITY   = .0013377
INCLINATION    = 50.0048
RA_OF_ASC_NODE = 311.4378
ARG_OF_PERICENTER = 321.9893
MEAN_ANOMALY   = 38.0075

EPHEMERIS_TYPE = 0
CLASSIFICATION_TYPE = U
NORAD_CAT_ID   = 66415
ELEMENT_SET_NO = 999
REV_AT_EPOCH   = 298
BSTAR          = .10287224E-3
MEAN_MOTION_DOT = .76E-6
MEAN_MOTION_DDOT = 0

CCSDS_OMM_VERS = 2.0
CREATION_DATE  = 
ORIGINATOR     = 

OBJECT_NAME    = HULIANWANG DIGUI 13E
OBJECT_ID      = 2025-258E
CENTER_NAME    = EARTH
REF_FRAME      = TEME
TIME_SYSTEM    = UTC
MEAN_ELEMENT_THEORY = SGP/SGP4

EPOCH          = 2025-11-30T23:41:45.877920
MEAN_MOTION    = 14.23466922
ECCENTRICITY   = .00127274
INCLINATION    = 50.0046
RA_OF_ASC_NODE = 311.4651
ARG_OF_PERICENTER = 323.1805
MEAN_ANOMALY   = 36.8233

EPHEMERIS_TYPE = 0
CLASSIFICATION_TYPE = U
NORAD_CAT_ID   = 66416
ELEMENT_SET_NO = 999
REV_AT_EPOCH   = 298
BSTAR          = .74243781E-4
MEAN_MOTION_DOT = .11E-6
MEAN_MOTION_DDOT = 0

CCSDS_OMM_VERS = 2.0
CREATION_DATE  = 
ORIGINATOR     = 

OBJECT_NAME    = HULIANWANG DIGUI 13F
OBJECT_ID      = 2025-258F
CENTER_NAME    = EARTH
REF_FRAME      = TEME
TIME_SYSTEM    = UTC
MEAN_ELEMENT_THEORY = SGP/SGP4

EPOCH          = 2025-11-30T23:39:49.908384
MEAN_MOTION    = 14.23474734
ECCENTRICITY   = .00123866
INCLINATION    = 49.9999
RA_OF_ASC_NODE = 311.4365
ARG_OF_PERICENTER = 321.2880
MEAN_ANOMALY   = 38.7144

EPHEMERIS_TYPE = 0
CLASSIFICATION_TYPE = U
NORAD_CAT_ID   = 66417
ELEMENT_SET_NO = 999
REV_AT_EPOCH   = 298
BSTAR          = .84488638E-4
MEAN_MOTION_DOT = .34E-6
MEAN_MOTION_DDOT = 0

CCSDS_OMM_VERS = 2.0
CREATION_DATE  = 
ORIGINATOR     = 

OBJECT_NAME    = HULIANWANG DIGUI 13G
OBJECT_ID      = 2025-258G
CENTER_NAME    = EARTH
REF_FRAME      = TEME
TIME_SYSTEM    = UTC
MEAN_ELEMENT_THEORY = SGP/SGP4

EPOCH          = 2025-11-30T23:33:49.386240
MEAN_MOTION    = 14.23485908
ECCENTRICITY   = .00124982
INCLINATION    = 50.0008
RA_OF_ASC_NODE = 311.4153
ARG_OF_PERICENTER = 317.5101
MEAN_ANOMALY   = 42.4844

EPHEMERIS_TYPE = 0
CLASSIFICATION_TYPE = U
NORAD_CAT_ID   = 66418
ELEMENT_SET_NO = 999
REV_AT_EPOCH   = 298
BSTAR          = .11067234E-3
MEAN_MOTION_DOT = .94E-6
MEAN_MOTION_DDOT = 0

CCSDS_OMM_VERS = 2.0
CREATION_DATE  = 
ORIGINATOR     = 

OBJECT_NAME    = HULIANWANG DIGUI 13H
OBJECT_ID      = 2025-258H
CENTER_NAME    = EARTH
REF_FRAME      = TEME
TIME_SYSTEM    = UTC
MEAN_ELEMENT_THEORY = SGP/SGP4

EPOCH          = 2025-11-30T23:31:44.096736
MEAN_MOTION    = 14.23502963
ECCENTRICITY   = .00121166
INCLINATION    = 50.0003
RA_OF_ASC_NODE = 311.4047
ARG_OF_PERICENTER = 318.6053
MEAN_ANOMALY   = 41.3941

EPHEMERIS_TYPE = 0
CLASSIFICATION_TYPE = U
NORAD_CAT_ID   = 66419
ELEMENT_SET_NO = 999
REV_AT_EPOCH   = 298
BSTAR          = .11699697E-3
MEAN_MOTION_DOT = .109E-5
MEAN_MOTION_DDOT = 0

CCSDS_OMM_VERS = 2.0
CREATION_DATE  = 
ORIGINATOR     = 

OBJECT_NAME    = HULIANWANG DIGUI 13J
OBJECT_ID      = 2025-258J
CENTER_NAME    = EARTH
REF_FRAME      = TEME
TIME_SYSTEM    = UTC
MEAN_ELEMENT_THEORY = SGP/SGP4

EPOCH          = 2025-11-30T23:29:59.248608
MEAN_MOTION    = 14.23470637
ECCENTRICITY   = .00114538
INCLINATION    = 50.0023
RA_OF_ASC_NODE = 311.4080
ARG_OF_PERICENTER = 325.7493
MEAN_ANOMALY   = 34.2680

EPHEMERIS_TYPE = 0
CLASSIFICATION_TYPE = U
NORAD_CAT_ID   = 66420
ELEMENT_SET_NO = 999
REV_AT_EPOCH   = 297
BSTAR          = .12096628E-3
MEAN_MOTION_DOT = .118E-5
MEAN_MOTION_DDOT = 0

