CHUTIAN-2 A             
1 66409U 25256A   25334.99408419  .00000058  00000+0  26440-4 0  9998
2 66409  98.2781  39.9629 0013070 214.0174 146.0183 14.49911980  3170
CHUTIAN-2 B             
1 66410U 25256B   25334.98426845  .00000723  00000+0  19375-3 0  9999
2 66410  98.2805  39.9819 0013166 217.8544 142.1726 14.50999225  3178
ZK-1A R/B               
1 66411U 25256C   25324.72402141  .00011214  00000+0  48988-3 0  9993
2 66411  98.3243  30.9055 0232353 318.4537  39.9225 15.01236100  1741
HULIANWANG DIGUI 13A    
1 66412U 25258A   25334.98454491  .00000011  00000+0  74545-4 0  9992
2 66412  50.0042 311.4453 0014072 316.4209  43.5591 14.23488919  2987
HULIANWANG DIGUI 13B    
1 66413U 25258B   25334.99219145 -.00000075  00000+0  36997-4 0  9999
2 66413  50.0007 311.4747 0013420 316.9354  43.0508 14.23480187  2989
HULIANWANG DIGUI 13C    
1 66414U 25258C   25334.98907964 -.00000014  00000+0  63365-4 0  9994
2 66414  50.0044 311.4727 0013593 315.2494  44.7321 14.23505681  2985
HULIANWANG DIGUI 13D    
1 66415U 25258D   25334.98314671  .00000076  00000+0  10287-3 0  9993
2 66415  50.0048 311.4378 0013377 321.9893  38.0075 14.23493869  2985
HULIANWANG DIGUI 13E    
1 66416U 25258E   25334.98733655  .00000011  00000+0  74244-4 0  9994
2 66416  50.0046 311.4651 0012727 323.1805  36.8233 14.23466922  2985
HULIANWANG DIGUI 13F    
1 66417U 25258F   25334.98599431  .00000034  00000+0  84489-4 0  9994
2 66417  49.9999 311.4365 0012386 321.2880  38.7144 14.23474734  2987
HULIANWANG DIGUI 13G    
1 66418U 25258G   25334.98182160  .00000094  00000+0  11067-3 0  9999
2 66418  50.0008 311.4153 0012498 317.5101  42.4844 14.23485908  2989
HULIANWANG DIGUI 13H    
1 66419U 25258H   25334.98037149  .00000109  00000+0  11700-3 0  9997
2 66419  50.0003 311.4047 0012116 318.6053  41.3941 14.23502963  2989
HULIANWANG DIGUI 13J    
1 66420U 25258J   25334.97915797  .00000118  00000+0  12097-3 0  9992
2 66420  50.0023 311.4080 0011453 325.7493  34.2680 14.23470637  2972
